IRIDIUM 155             
1 43573U 18061E   24318.00909933  .00000262  00000+0  86583-4 0  9992
2 43573  86.3922 299.5485 0002418  84.3371 275.8100 14.34219859330068
IRIDIUM 154             
1 43574U 18061F   24318.05984045  .00000661  00000+0  22884-3 0  9991
2 43574  86.3927 299.6320 0002226  91.1854 268.9597 14.34218277330114
IRIDIUM 163             
1 43575U 18061G   24317.69197382 -.00000010  00000+0 -10582-4 0  9994
2 43575  86.3922 299.7198 0002287  92.5757 267.5700 14.34214728330037
IRIDIUM 156             
1 43576U 18061H   24317.94567512  .00000451  00000+0  15395-3 0  9992
2 43576  86.3926 299.6202 0002454  80.9821 279.1652 14.34219764330069
IRIDIUM 164             
1 43577U 18061J   24317.99641317  .00000492  00000+0  16876-3 0  9994
2 43577  86.3926 299.6300 0002078  85.3511 274.7922 14.34221031330113
IRIDIUM 159             
1 43578U 18061K   24318.03447042  .00000569  00000+0  19621-3 0  9996
2 43578  86.3925 299.5630 0002132  89.4144 270.7296 14.34218536330088
IRIDIUM 180             
1 43922U 19002A   24317.82465774  .00000867  00000+0  30248-3 0  9992
2 43922  86.3990 236.4983 0002318  83.0728 277.0732 14.34210765305665
IRIDIUM 176             
1 43923U 19002B   24317.83119223  .00003319  00000+0  52250-3 0  9991
2 43923  86.6118 236.5048 0002452  95.0074 265.1423 14.72238647313711
IRIDIUM 168             
1 43924U 19002C   24317.88808536  .00000983  00000+0  34384-3 0  9991
2 43924  86.3993 236.5327 0002258  84.0001 276.1452 14.34219126305659
IRIDIUM 173             
1 43925U 19002D   24317.87540794  .00002018  00000+0  71351-3 0  9996
2 43925  86.3989 236.4509 0002272  81.1757 278.9696 14.34214089305639
IRIDIUM 169             
1 43926U 19002E   24317.90512062  .00001109  00000+0  35618-3 0  9994
2 43926  86.4199 268.0660 0004171  87.4846 272.6830 14.38597045306655
IRIDIUM 172             
1 43927U 19002F   24317.86906233  .00000618  00000+0  21370-3 0  9991
2 43927  86.3987 236.4592 0002175  84.7988 275.3456 14.34218628305647
IRIDIUM 175             
1 43928U 19002G   24317.96172822  .00002648  00000+0  41598-3 0  9991
2 43928  86.1555 201.2394 0003141  66.0068 294.1477 14.72245425313720
IRIDIUM 171             
1 43929U 19002H   24317.85002610  .00000833  00000+0  29048-3 0  9997
2 43929  86.4000 236.7093 0002073  74.5293 285.6132 14.34211321305635
IRIDIUM 170             
1 43930U 19002J   24317.90538322  .00002853  00000+0  44861-3 0  9993
2 43930  86.6121 236.4792 0002248  84.5531 275.5942 14.72245052313733
IRIDIUM 167             
1 43931U 19002K   24317.91345501  .00000876  00000+0  30569-3 0  9993
2 43931  86.3989 236.4582 0002391  73.3285 286.8173 14.34221820305648
IRIDIUM 181             
1 56726U 23068S   24317.92982278  .00000756  00000+0  21745-3 0  9998
2 56726  86.8584 297.4255 0002173  78.9995 281.1451 14.43600993 78591
IRIDIUM 177             
1 56727U 23068T   24317.88111374  .00004033  00000+0  52708-3 0  9990
2 56727  86.1978 244.7299 0002911  80.3777 279.7773 14.80240302 80374
IRIDIUM 174             
1 56728U 23068U   24317.87568305  .00004061  00000+0  53124-3 0  9994
2 56728  86.1986 244.8480 0002397  86.9035 273.2460 14.80199243 80373
IRIDIUM 178             
1 56729U 23068V   24318.14070647  .00003758  00000+0  49065-3 0  9994
2 56729  86.5747 269.2439 0003118  74.9683 285.1884 14.80262788 80418
IRIDIUM 179             
1 56730U 23068W   24317.93235230  .00003715  00000+0  48503-3 0  9992
2 56730  86.6752 275.3442 0002795  79.9382 280.2155 14.80261805 80382
